[{"OBJECT_NAME":"CRE (WAAS\/PRN 138)","OBJECT_ID":"2005-036A","EPOCH":"2023-04-27T05:09:08.610336","MEAN_MOTION":1.00271911,"ECCENTRICITY":0.000246,"INCLINATION":1.3582,"RA_OF_ASC_NODE":90.4657,"ARG_OF_PERICENTER":322.7892,"MEAN_ANOMALY":131.6893,"EPHEMERIS_TYPE":0,"CLASSIFICATION_TYPE":"U","NORAD_CAT_ID":28868,"ELEMENT_SET_NO":999,"REV_AT_EPOCH":6465,"BSTAR":0,"MEAN_MOTION_DOT":-7.5e-7,"MEAN_MOTION_DDOT":0},{"OBJECT_NAME":"IOR-W (EGNOS\/PRN 126)","OBJECT_ID":"2005-044A","EPOCH":"2023-04-26T20:24:42.566688","MEAN_MOTION":1.0027218,"ECCENTRICITY":0.0002677,"INCLINATION":3.7652,"RA_OF_ASC_NODE":39.9686,"ARG_OF_PERICENTER":357.9403,"MEAN_ANOMALY":186.7355,"EPHEMERIS_TYPE":0,"CLASSIFICATION_TYPE":"U","NORAD_CAT_ID":28899,"ELEMENT_SET_NO":999,"REV_AT_EPOCH":6401,"BSTAR":0,"MEAN_MOTION_DOT":1.0e-7,"MEAN_MOTION_DDOT":0},{"OBJECT_NAME":"QZS-1 (QZSS\/PRN 183)","OBJECT_ID":"2010-045A","EPOCH":"2023-04-27T08:27:10.156032","MEAN_MOTION":1.00290022,"ECCENTRICITY":0.075945,"INCLINATION":42.6727,"RA_OF_ASC_NODE":129.0676,"ARG_OF_PERICENTER":270.3404,"MEAN_ANOMALY":80.7263,"EPHEMERIS_TYPE":0,"CLASSIFICATION_TYPE":"U","NORAD_CAT_ID":37158,"ELEMENT_SET_NO":999,"REV_AT_EPOCH":4621,"BSTAR":0,"MEAN_MOTION_DOT":-1.07e-6,"MEAN_MOTION_DDOT":0},{"OBJECT_NAME":"GSAT-8 (GAGAN\/PRN 127)","OBJECT_ID":"2011-022A","EPOCH":"2023-04-26T20:24:42.566688","MEAN_MOTION":1.00272092,"ECCENTRICITY":0.000481,"INCLINATION":0.039,"RA_OF_ASC_NODE":82.7931,"ARG_OF_PERICENTER":225.7786,"MEAN_ANOMALY":267.2629,"EPHEMERIS_TYPE":0,"CLASSIFICATION_TYPE":"U","NORAD_CAT_ID":37605,"ELEMENT_SET_NO":999,"REV_AT_EPOCH":4373,"BSTAR":0,"MEAN_MOTION_DOT":8.2e-7,"MEAN_MOTION_DDOT":0},{"OBJECT_NAME":"LUCH 5A (SDCM\/PRN 140)","OBJECT_ID":"2011-074B","EPOCH":"2023-04-26T17:03:46.411776","MEAN_MOTION":1.00268999,"ECCENTRICITY":0.0004203,"INCLINATION":5.8131,"RA_OF_ASC_NODE":91.9112,"ARG_OF_PERICENTER":324.2086,"MEAN_ANOMALY":221.1863,"EPHEMERIS_TYPE":0,"CLASSIFICATION_TYPE":"U","NORAD_CAT_ID":37951,"ELEMENT_SET_NO":999,"REV_AT_EPOCH":4168,"BSTAR":0,"MEAN_MOTION_DOT":-4.8e-7,"MEAN_MOTION_DDOT":0},{"OBJECT_NAME":"SES-5 (EGNOS\/PRN 136)","OBJECT_ID":"2012-036A","EPOCH":"2023-04-26T18:00:37.971936","MEAN_MOTION":1.00272838,"ECCENTRICITY":0.0001788,"INCLINATION":0.0479,"RA_OF_ASC_NODE":296.5537,"ARG_OF_PERICENTER":87.8013,"MEAN_ANOMALY":105.267,"EPHEMERIS_TYPE":0,"CLASSIFICATION_TYPE":"U","NORAD_CAT_ID":38652,"ELEMENT_SET_NO":999,"REV_AT_EPOCH":3298,"BSTAR":0,"MEAN_MOTION_DOT":3.2e-7,"MEAN_MOTION_DDOT":0},{"OBJECT_NAME":"GSAT-10 (GAGAN\/PRN 128)","OBJECT_ID":"2012-051B","EPOCH":"2023-04-26T20:31:07.376736","MEAN_MOTION":1.00273206,"ECCENTRICITY":0.0001854,"INCLINATION":0.0247,"RA_OF_ASC_NODE":131.6849,"ARG_OF_PERICENTER":186.8839,"MEAN_ANOMALY":286.8,"EPHEMERIS_TYPE":0,"CLASSIFICATION_TYPE":"U","NORAD_CAT_ID":38779,"ELEMENT_SET_NO":999,"REV_AT_EPOCH":3878,"BSTAR":0,"MEAN_MOTION_DOT":-1.67e-6,"MEAN_MOTION_DDOT":0},{"OBJECT_NAME":"LUCH 5B (SDCM\/PRN 125)","OBJECT_ID":"2012-061A","EPOCH":"2023-04-26T16:11:12.975936","MEAN_MOTION":1.00270952,"ECCENTRICITY":0.0002231,"INCLINATION":7.9718,"RA_OF_ASC_NODE":60.1909,"ARG_OF_PERICENTER":18.0157,"MEAN_ANOMALY":2.6638,"EPHEMERIS_TYPE":0,"CLASSIFICATION_TYPE":"U","NORAD_CAT_ID":38977,"ELEMENT_SET_NO":999,"REV_AT_EPOCH":3867,"BSTAR":0,"MEAN_MOTION_DOT":-1.35e-6,"MEAN_MOTION_DDOT":0},{"OBJECT_NAME":"ASTRA 5B (EGNOS\/PRN 123)","OBJECT_ID":"2014-011B","EPOCH":"2023-04-27T04:14:42.508032","MEAN_MOTION":1.00272959,"ECCENTRICITY":0.0002918,"INCLINATION":0.0704,"RA_OF_ASC_NODE":303.5757,"ARG_OF_PERICENTER":99.3612,"MEAN_ANOMALY":267.1638,"EPHEMERIS_TYPE":0,"CLASSIFICATION_TYPE":"U","NORAD_CAT_ID":39617,"ELEMENT_SET_NO":999,"REV_AT_EPOCH":3336,"BSTAR":0,"MEAN_MOTION_DOT":1.53e-6,"MEAN_MOTION_DDOT":0},{"OBJECT_NAME":"LUCH 5V (SDCM\/PRN 141)","OBJECT_ID":"2014-023A","EPOCH":"2023-04-26T20:15:57.399840","MEAN_MOTION":1.00277474,"ECCENTRICITY":0.0001518,"INCLINATION":2.2576,"RA_OF_ASC_NODE":77.476,"ARG_OF_PERICENTER":341.1287,"MEAN_ANOMALY":194.6097,"EPHEMERIS_TYPE":0,"CLASSIFICATION_TYPE":"U","NORAD_CAT_ID":39727,"ELEMENT_SET_NO":999,"REV_AT_EPOCH":3285,"BSTAR":0,"MEAN_MOTION_DOT":-2.7e-6,"MEAN_MOTION_DDOT":0},{"OBJECT_NAME":"GSAT-15 (GAGAN\/PRN 139)","OBJECT_ID":"2015-065A","EPOCH":"2023-04-26T20:36:42.009120","MEAN_MOTION":1.00273473,"ECCENTRICITY":0.0002776,"INCLINATION":0.0496,"RA_OF_ASC_NODE":91.1952,"ARG_OF_PERICENTER":324.524,"MEAN_ANOMALY":201.5347,"EPHEMERIS_TYPE":0,"CLASSIFICATION_TYPE":"U","NORAD_CAT_ID":41028,"ELEMENT_SET_NO":999,"REV_AT_EPOCH":2730,"BSTAR":0,"MEAN_MOTION_DOT":-2.6e-6,"MEAN_MOTION_DDOT":0},{"OBJECT_NAME":"E 117 W B (WAAS\/PRN 131)","OBJECT_ID":"2016-038B","EPOCH":"2023-04-27T02:22:34.110624","MEAN_MOTION":1.0027025,"ECCENTRICITY":2.5e-6,"INCLINATION":0.0122,"RA_OF_ASC_NODE":104.0842,"ARG_OF_PERICENTER":237.477,"MEAN_ANOMALY":151.9127,"EPHEMERIS_TYPE":0,"CLASSIFICATION_TYPE":"U","NORAD_CAT_ID":41589,"ELEMENT_SET_NO":999,"REV_AT_EPOCH":2520,"BSTAR":0,"MEAN_MOTION_DOT":-1.3e-7,"MEAN_MOTION_DDOT":0},{"OBJECT_NAME":"SES-15 (WAAS\/PRN 133)","OBJECT_ID":"2017-026A","EPOCH":"2023-04-26T17:22:05.944224","MEAN_MOTION":1.00270365,"ECCENTRICITY":3.69e-5,"INCLINATION":0.0347,"RA_OF_ASC_NODE":54.5004,"ARG_OF_PERICENTER":288.9146,"MEAN_ANOMALY":2.4261,"EPHEMERIS_TYPE":0,"CLASSIFICATION_TYPE":"U","NORAD_CAT_ID":42709,"ELEMENT_SET_NO":999,"REV_AT_EPOCH":2263,"BSTAR":0,"MEAN_MOTION_DOT":5.8e-7,"MEAN_MOTION_DDOT":0},{"OBJECT_NAME":"QZS-2 (QZSS\/PRN 184)","OBJECT_ID":"2017-028A","EPOCH":"2023-04-26T16:58:15.046176","MEAN_MOTION":1.00251117,"ECCENTRICITY":0.0740395,"INCLINATION":41.2556,"RA_OF_ASC_NODE":259.7228,"ARG_OF_PERICENTER":270.6648,"MEAN_ANOMALY":76.7068,"EPHEMERIS_TYPE":0,"CLASSIFICATION_TYPE":"U","NORAD_CAT_ID":42738,"ELEMENT_SET_NO":999,"REV_AT_EPOCH":2163,"BSTAR":0,"MEAN_MOTION_DOT":-2.25e-6,"MEAN_MOTION_DDOT":0},{"OBJECT_NAME":"QZS-3 (QZSS\/PRN 189)","OBJECT_ID":"2017-048A","EPOCH":"2023-04-26T19:21:47.654784","MEAN_MOTION":1.00272632,"ECCENTRICITY":0.0002321,"INCLINATION":0.0534,"RA_OF_ASC_NODE":197.6852,"ARG_OF_PERICENTER":192.2687,"MEAN_ANOMALY":242.0635,"EPHEMERIS_TYPE":0,"CLASSIFICATION_TYPE":"U","NORAD_CAT_ID":42917,"ELEMENT_SET_NO":999,"REV_AT_EPOCH":2075,"BSTAR":0,"MEAN_MOTION_DOT":-3.5e-6,"MEAN_MOTION_DDOT":0},{"OBJECT_NAME":"QZS-4 (QZSS\/PRN 185)","OBJECT_ID":"2017-062A","EPOCH":"2023-04-26T16:30:13.317696","MEAN_MOTION":1.00269018,"ECCENTRICITY":0.0747026,"INCLINATION":40.6793,"RA_OF_ASC_NODE":358.1011,"ARG_OF_PERICENTER":270.6399,"MEAN_ANOMALY":332.6042,"EPHEMERIS_TYPE":0,"CLASSIFICATION_TYPE":"U","NORAD_CAT_ID":42965,"ELEMENT_SET_NO":999,"REV_AT_EPOCH":2030,"BSTAR":0,"MEAN_MOTION_DOT":-3.41e-6,"MEAN_MOTION_DDOT":0},{"OBJECT_NAME":"BEIDOU-3 G1 (PRN 130)","OBJECT_ID":"2018-085A","EPOCH":"2023-04-26T20:22:33.498912","MEAN_MOTION":1.0026973,"ECCENTRICITY":0.0004237,"INCLINATION":1.2447,"RA_OF_ASC_NODE":134.6255,"ARG_OF_PERICENTER":308.2268,"MEAN_ANOMALY":217.4609,"EPHEMERIS_TYPE":0,"CLASSIFICATION_TYPE":"U","NORAD_CAT_ID":43683,"ELEMENT_SET_NO":999,"REV_AT_EPOCH":1655,"BSTAR":0,"MEAN_MOTION_DOT":-2.79e-6,"MEAN_MOTION_DDOT":0}]
